[{"OBJECT_NAME":"STARLINK-31322","OBJECT_ID":"2024-044S","EPOCH":"2025-10-06T06:12:28.441728","MEAN_MOTION":15.27557503,"ECCENTRICITY":8.52e-5,"INCLINATION":43.0029,"RA_OF_ASC_NODE":259.4858,"ARG_OF_PERICENTER":268.372,"MEAN_ANOMALY":91.7034,"EPHEMERIS_TYPE":0,"CLASSIFICATION_TYPE":"U","NORAD_CAT_ID":59168,"ELEMENT_SET_NO":999,"REV_AT_EPOCH":8997,"BSTAR":-8.0009e-5,"MEAN_MOTION_DOT":-2.461e-5,"MEAN_MOTION_DDOT":0},{"OBJECT_NAME":"STARLINK-31329","OBJECT_ID":"2024-044T","EPOCH":"2025-10-06T07:35:30.035040","MEAN_MOTION":15.27574421,"ECCENTRICITY":6.16e-5,"INCLINATION":43.0015,"RA_OF_ASC_NODE":259.0583,"ARG_OF_PERICENTER":259.8055,"MEAN_ANOMALY":100.2727,"EPHEMERIS_TYPE":0,"CLASSIFICATION_TYPE":"U","NORAD_CAT_ID":59169,"ELEMENT_SET_NO":999,"REV_AT_EPOCH":8995,"BSTAR":9.1772e-5,"MEAN_MOTION_DOT":2.264e-5,"MEAN_MOTION_DDOT":0},{"OBJECT_NAME":"STARLINK-31340","OBJECT_ID":"2024-044U","EPOCH":"2025-10-06T02:52:53.343840","MEAN_MOTION":15.27577727,"ECCENTRICITY":8.26e-5,"INCLINATION":43.0005,"RA_OF_ASC_NODE":220.4013,"ARG_OF_PERICENTER":245.9806,"MEAN_ANOMALY":114.0959,"EPHEMERIS_TYPE":0,"CLASSIFICATION_TYPE":"U","NORAD_CAT_ID":59170,"ELEMENT_SET_NO":999,"REV_AT_EPOCH":9038,"BSTAR":2.4439e-5,"MEAN_MOTION_DOT":4.11e-6,"MEAN_MOTION_DDOT":0},{"OBJECT_NAME":"STARLINK-31344","OBJECT_ID":"2024-044V","EPOCH":"2025-10-06T07:41:03.788736","MEAN_MOTION":15.27582974,"ECCENTRICITY":8.62e-5,"INCLINATION":43.0033,"RA_OF_ASC_NODE":259.0864,"ARG_OF_PERICENTER":256.1127,"MEAN_ANOMALY":103.9629,"EPHEMERIS_TYPE":0,"CLASSIFICATION_TYPE":"U","NORAD_CAT_ID":59171,"ELEMENT_SET_NO":999,"REV_AT_EPOCH":8998,"BSTAR":-9.2588e-5,"MEAN_MOTION_DOT":-2.809e-5,"MEAN_MOTION_DDOT":0},{"OBJECT_NAME":"STARLINK-31348","OBJECT_ID":"2024-044W","EPOCH":"2025-10-06T02:17:17.972160","MEAN_MOTION":15.27582955,"ECCENTRICITY":6.62e-5,"INCLINATION":42.9995,"RA_OF_ASC_NODE":213.2784,"ARG_OF_PERICENTER":41.6799,"MEAN_ANOMALY":318.4103,"EPHEMERIS_TYPE":0,"CLASSIFICATION_TYPE":"U","NORAD_CAT_ID":59172,"ELEMENT_SET_NO":999,"REV_AT_EPOCH":9046,"BSTAR":0.0012577,"MEAN_MOTION_DOT":0.00034512,"MEAN_MOTION_DDOT":0},{"OBJECT_NAME":"STARLINK-31289","OBJECT_ID":"2024-044X","EPOCH":"2025-10-05T23:24:22.781952","MEAN_MOTION":15.27551922,"ECCENTRICITY":0.0001115,"INCLINATION":43.0001,"RA_OF_ASC_NODE":260.7984,"ARG_OF_PERICENTER":271.6602,"MEAN_ANOMALY":88.4122,"EPHEMERIS_TYPE":0,"CLASSIFICATION_TYPE":"U","NORAD_CAT_ID":59173,"ELEMENT_SET_NO":999,"REV_AT_EPOCH":8993,"BSTAR":9.765e-5,"MEAN_MOTION_DOT":2.424e-5,"MEAN_MOTION_DDOT":0},{"OBJECT_NAME":"STARLINK-31283","OBJECT_ID":"2024-044Y","EPOCH":"2025-10-06T14:00:01.000224","MEAN_MOTION":15.27579916,"ECCENTRICITY":0.0001468,"INCLINATION":43.0036,"RA_OF_ASC_NODE":210.4215,"ARG_OF_PERICENTER":274.0227,"MEAN_ANOMALY":295.3819,"EPHEMERIS_TYPE":0,"CLASSIFICATION_TYPE":"U","NORAD_CAT_ID":59174,"ELEMENT_SET_NO":999,"REV_AT_EPOCH":586,"BSTAR":0.00083518,"MEAN_MOTION_DOT":0.00022791,"MEAN_MOTION_DDOT":0},{"OBJECT_NAME":"STARLINK-31439","OBJECT_ID":"2024-045A","EPOCH":"2025-10-06T06:34:11.688096","MEAN_MOTION":15.27603209,"ECCENTRICITY":9.16e-5,"INCLINATION":43.0014,"RA_OF_ASC_NODE":241.3046,"ARG_OF_PERICENTER":253.4321,"MEAN_ANOMALY":106.643,"EPHEMERIS_TYPE":0,"CLASSIFICATION_TYPE":"U","NORAD_CAT_ID":59178,"ELEMENT_SET_NO":999,"REV_AT_EPOCH":2591,"BSTAR":0.00051226,"MEAN_MOTION_DOT":0.00013871,"MEAN_MOTION_DDOT":0},{"OBJECT_NAME":"STARLINK-31410","OBJECT_ID":"2024-045B","EPOCH":"2025-10-06T07:24:50.362272","MEAN_MOTION":15.25929525,"ECCENTRICITY":0.0001256,"INCLINATION":43.0017,"RA_OF_ASC_NODE":244.1697,"ARG_OF_PERICENTER":280.7262,"MEAN_ANOMALY":79.3448,"EPHEMERIS_TYPE":0,"CLASSIFICATION_TYPE":"U","NORAD_CAT_ID":59179,"ELEMENT_SET_NO":999,"REV_AT_EPOCH":8955,"BSTAR":0.000944,"MEAN_MOTION_DOT":0.00024532,"MEAN_MOTION_DDOT":0},{"OBJECT_NAME":"STARLINK-31395","OBJECT_ID":"2024-045C","EPOCH":"2025-10-06T07:03:07.801056","MEAN_MOTION":15.27562366,"ECCENTRICITY":0.0001303,"INCLINATION":43.0044,"RA_OF_ASC_NODE":244.9161,"ARG_OF_PERICENTER":267.7603,"MEAN_ANOMALY":92.31,"EPHEMERIS_TYPE":0,"CLASSIFICATION_TYPE":"U","NORAD_CAT_ID":59180,"ELEMENT_SET_NO":999,"REV_AT_EPOCH":8954,"BSTAR":-6.2599e-5,"MEAN_MOTION_DOT":-1.983e-5,"MEAN_MOTION_DDOT":0},{"OBJECT_NAME":"STARLINK-31486","OBJECT_ID":"2024-045D","EPOCH":"2025-10-06T06:39:46.093248","MEAN_MOTION":15.275609,"ECCENTRICITY":0.0001377,"INCLINATION":43.004,"RA_OF_ASC_NODE":241.3358,"ARG_OF_PERICENTER":266.8587,"MEAN_ANOMALY":93.2107,"EPHEMERIS_TYPE":0,"CLASSIFICATION_TYPE":"U","NORAD_CAT_ID":59181,"ELEMENT_SET_NO":999,"REV_AT_EPOCH":8958,"BSTAR":-6.3043e-5,"MEAN_MOTION_DOT":-1.995e-5,"MEAN_MOTION_DDOT":0},{"OBJECT_NAME":"STARLINK-31411","OBJECT_ID":"2024-045E","EPOCH":"2025-10-06T07:19:32.321280","MEAN_MOTION":15.27583537,"ECCENTRICITY":0.0001128,"INCLINATION":43.0058,"RA_OF_ASC_NODE":244.1413,"ARG_OF_PERICENTER":283.1912,"MEAN_ANOMALY":76.8814,"EPHEMERIS_TYPE":0,"CLASSIFICATION_TYPE":"U","NORAD_CAT_ID":59182,"ELEMENT_SET_NO":999,"REV_AT_EPOCH":8955,"BSTAR":1.6979e-5,"MEAN_MOTION_DOT":2.05e-6,"MEAN_MOTION_DDOT":0},{"OBJECT_NAME":"STARLINK-31382","OBJECT_ID":"2024-045G","EPOCH":"2025-10-06T05:37:59.250720","MEAN_MOTION":15.2758168,"ECCENTRICITY":0.0001223,"INCLINATION":43.0036,"RA_OF_ASC_NODE":244.4698,"ARG_OF_PERICENTER":289.7511,"MEAN_ANOMALY":70.3209,"EPHEMERIS_TYPE":0,"CLASSIFICATION_TYPE":"U","NORAD_CAT_ID":59184,"ELEMENT_SET_NO":999,"REV_AT_EPOCH":8954,"BSTAR":0.00072488,"MEAN_MOTION_DOT":0.00019739,"MEAN_MOTION_DDOT":0},{"OBJECT_NAME":"STARLINK-31394","OBJECT_ID":"2024-045H","EPOCH":"2025-10-06T04:28:08.080032","MEAN_MOTION":15.27579078,"ECCENTRICITY":8.21e-5,"INCLINATION":43.0034,"RA_OF_ASC_NODE":234.5956,"ARG_OF_PERICENTER":278.4407,"MEAN_ANOMALY":81.6351,"EPHEMERIS_TYPE":0,"CLASSIFICATION_TYPE":"U","NORAD_CAT_ID":59185,"ELEMENT_SET_NO":999,"REV_AT_EPOCH":8965,"BSTAR":3.8353e-5,"MEAN_MOTION_DOT":7.94e-6,"MEAN_MOTION_DDOT":0},{"OBJECT_NAME":"STARLINK-31403","OBJECT_ID":"2024-045J","EPOCH":"2025-10-06T05:27:19.286784","MEAN_MOTION":15.27576493,"ECCENTRICITY":0.0001297,"INCLINATION":43.004,"RA_OF_ASC_NODE":223.4372,"ARG_OF_PERICENTER":284.3324,"MEAN_ANOMALY":75.7384,"EPHEMERIS_TYPE":0,"CLASSIFICATION_TYPE":"U","NORAD_CAT_ID":59186,"ELEMENT_SET_NO":999,"REV_AT_EPOCH":8972,"BSTAR":1.6467e-5,"MEAN_MOTION_DOT":1.91e-6,"MEAN_MOTION_DDOT":0},{"OBJECT_NAME":"STARLINK-31514","OBJECT_ID":"2024-045K","EPOCH":"2025-10-06T04:51:55.554048","MEAN_MOTION":15.27598766,"ECCENTRICITY":6.18e-5,"INCLINATION":43.0009,"RA_OF_ASC_NODE":245.0859,"ARG_OF_PERICENTER":300.2229,"MEAN_ANOMALY":59.8562,"EPHEMERIS_TYPE":0,"CLASSIFICATION_TYPE":"U","NORAD_CAT_ID":59187,"ELEMENT_SET_NO":999,"REV_AT_EPOCH":8953,"BSTAR":7.035e-5,"MEAN_MOTION_DOT":1.676e-5,"MEAN_MOTION_DDOT":0},{"OBJECT_NAME":"STARLINK-31478","OBJECT_ID":"2024-045L","EPOCH":"2025-10-05T22:20:30.916032","MEAN_MOTION":15.27567072,"ECCENTRICITY":4.09e-5,"INCLINATION":42.9985,"RA_OF_ASC_NODE":246.4825,"ARG_OF_PERICENTER":234.0251,"MEAN_ANOMALY":126.0563,"EPHEMERIS_TYPE":0,"CLASSIFICATION_TYPE":"U","NORAD_CAT_ID":59188,"ELEMENT_SET_NO":999,"REV_AT_EPOCH":8949,"BSTAR":-0.00058531,"MEAN_MOTION_DOT":-0.00016326,"MEAN_MOTION_DDOT":0},{"OBJECT_NAME":"STARLINK-31498","OBJECT_ID":"2024-045M","EPOCH":"2025-10-06T05:14:08.871072","MEAN_MOTION":15.27580346,"ECCENTRICITY":4.99e-5,"INCLINATION":43.0029,"RA_OF_ASC_NODE":245.1984,"ARG_OF_PERICENTER":287.6019,"MEAN_ANOMALY":72.4778,"EPHEMERIS_TYPE":0,"CLASSIFICATION_TYPE":"U","NORAD_CAT_ID":59189,"ELEMENT_SET_NO":999,"REV_AT_EPOCH":8953,"BSTAR":3.6377e-5,"MEAN_MOTION_DOT":7.39e-6,"MEAN_MOTION_DDOT":0},{"OBJECT_NAME":"STARLINK-31563","OBJECT_ID":"2024-045N","EPOCH":"2025-10-06T09:02:57.452640","MEAN_MOTION":15.27582088,"ECCENTRICITY":7.86e-5,"INCLINATION":43.001,"RA_OF_ASC_NODE":243.816,"ARG_OF_PERICENTER":216.7236,"MEAN_ANOMALY":143.3562,"EPHEMERIS_TYPE":0,"CLASSIFICATION_TYPE":"U","NORAD_CAT_ID":59190,"ELEMENT_SET_NO":999,"REV_AT_EPOCH":8956,"BSTAR":-4.4603e-5,"MEAN_MOTION_DOT":-1.489e-5,"MEAN_MOTION_DDOT":0},{"OBJECT_NAME":"STARLINK-31551","OBJECT_ID":"2024-045P","EPOCH":"2025-10-06T05:38:41.690400","MEAN_MOTION":15.2755035,"ECCENTRICITY":0.0001137,"INCLINATION":43.0006,"RA_OF_ASC_NODE":241.0405,"ARG_OF_PERICENTER":272.678,"MEAN_ANOMALY":87.3942,"EPHEMERIS_TYPE":0,"CLASSIFICATION_TYPE":"U","NORAD_CAT_ID":59191,"ELEMENT_SET_NO":999,"REV_AT_EPOCH":8958,"BSTAR":-0.0003134,"MEAN_MOTION_DOT":-8.868e-5,"MEAN_MOTION_DDOT":0},{"OBJECT_NAME":"STARLINK-31536","OBJECT_ID":"2024-045Q","EPOCH":"2025-10-06T14:00:01.000224","MEAN_MOTION":15.27605588,"ECCENTRICITY":0.0001213,"INCLINATION":43,"RA_OF_ASC_NODE":242.8396,"ARG_OF_PERICENTER":252.8457,"MEAN_ANOMALY":78.0436,"EPHEMERIS_TYPE":0,"CLASSIFICATION_TYPE":"U","NORAD_CAT_ID":59192,"ELEMENT_SET_NO":999,"REV_AT_EPOCH":586,"BSTAR":-0.0006139,"MEAN_MOTION_DOT":-0.0001713,"MEAN_MOTION_DDOT":0},{"OBJECT_NAME":"STARLINK-31548","OBJECT_ID":"2024-045R","EPOCH":"2025-10-06T06:57:33.732864","MEAN_MOTION":15.27572398,"ECCENTRICITY":2.85e-5,"INCLINATION":43.0013,"RA_OF_ASC_NODE":244.8828,"ARG_OF_PERICENTER":25.7199,"MEAN_ANOMALY":334.3667,"EPHEMERIS_TYPE":0,"CLASSIFICATION_TYPE":"U","NORAD_CAT_ID":59193,"ELEMENT_SET_NO":999,"REV_AT_EPOCH":8954,"BSTAR":8.7105e-5,"MEAN_MOTION_DOT":2.135e-5,"MEAN_MOTION_DDOT":0},{"OBJECT_NAME":"STARLINK-31542","OBJECT_ID":"2024-045S","EPOCH":"2025-10-06T05:34:17.626944","MEAN_MOTION":15.27582641,"ECCENTRICITY":8.1e-5,"INCLINATION":43.003,"RA_OF_ASC_NODE":244.4511,"ARG_OF_PERICENTER":276.3474,"MEAN_ANOMALY":83.7286,"EPHEMERIS_TYPE":0,"CLASSIFICATION_TYPE":"U","NORAD_CAT_ID":59194,"ELEMENT_SET_NO":999,"REV_AT_EPOCH":8954,"BSTAR":0.0001985,"MEAN_MOTION_DOT":5.205e-5,"MEAN_MOTION_DDOT":0}]
